#aV2019  7  8  0  0  0.00000000     288 DD+AD WGS84 FIT  NGA
## 2061  86400.00000000   300.00000000 58672 0.0000000000000
+   31     1  2  3  5  6  7  8  9 10 11 12 13 14 15 16 17 18
+         19 20 21 22 23 24 25 26 27 28 29 30 31 32  0  0  0
+          0  0  0  0  0  0  0  0  0  0  0  0  0  0  0  0  0
+          0  0  0  0  0  0  0  0  0  0  0  0  0  0  0  0  0
+          0  0  0  0  0  0  0  0  0  0  0  0  0  0  0  0  0
++         2  2  2  2  2  2  2  2  2  2  2  2  2  2  2  2  2
++         2  2  2  2  2  2  2  2  2  2  2  2  2  2  0  0  0
++         0  0  0  0  0  0  0  0  0  0  0  0  0  0  0  0  0
++         0  0  0  0  0  0  0  0  0  0  0  0  0  0  0  0  0
++         0  0  0  0  0  0  0  0  0  0  0  0  0  0  0  0  0
%c cc cc ccc ccc cccc cccc cccc cccc ccccc ccccc ccccc ccccc
%c cc cc ccc ccc cccc cccc cccc cccc ccccc ccccc ccccc ccccc
%f  0.0000000  0.000000000  0.00000000000  0.000000000000000
%f  0.0000000  0.000000000  0.00000000000  0.000000000000000
%i    0    0    0    0      0      0      0      0         0
%i    0    0    0    0      0      0      0      0         0
/*      NGA, ST. LOUIS,MO.                                  
/*   EPHEMERIS COMPUTED FROM 2 DAYS OF DATA                 
/*   EPOCHA v5 SMOOTHER                                     
/*   G1762 IERS2010 SATAF SATAPC                            
*  2019  7  8  4 40  0.00000000
P  1 -14828.680512   1584.549853  21801.736222    -61.362033                    
V  1  -7137.806224 -27160.070409  -2542.404584     -0.103460                    
P  2  14463.779428  19405.230017 -10497.262623   -255.172302                    
V  2   2061.841279  14294.207762  27531.819130     -0.087070                    
P  3 -21532.294847  10388.132287  11431.386116    182.260230                    
V  3   8593.356478 -12060.126488  27128.656496     -0.019564                    
P  5  13415.981466   8209.506381 -21544.627600      0.160012                    
V  5 -18361.355474  19907.345722  -3665.680288     -0.002225                    
P  6   6060.189042  25802.510662   1443.105312    155.947811                    
V  6  -2748.787938  -1094.260537  32040.210968     -0.111093                    
P  7  -8834.234191  16883.670650 -18028.221276    -59.947924                    
V  7  -7781.559487 -22404.498276 -17390.752869     -0.077225                    
P  8 -26133.558482  -4735.410591   2511.958386   -150.376116                    
V  8  -2476.124215  -3018.537915 -31613.396200     -0.014778                    
P  9 -14982.859900  10448.315779 -19323.571227    375.590268                    
V  9 -23421.291804  -7253.541200  14257.409800     -0.081709                    
P 10   7325.936686 -21274.465629  14015.204145     -8.805785                    
V 10  14061.600603 -11079.172461 -24474.677239     -0.127627                    
P 11 -19124.002836   -992.792255  17770.468723   -566.491768                    
V 11 -13728.376080 -19751.508250 -15689.811856      0.091753                    
P 12  21619.202246  -7219.775770  13278.372364    225.953992                    
V 12 -11711.904388  12796.115414  25770.227844     -0.036046                    
P 13  22454.412725  13149.853522  -5572.229946    -55.614868                    
V 13  -7340.493739   -292.338924 -30819.294106      0.017238                    
P 14 -11406.402947 -16920.617691  17425.976973    -72.550679                    
V 14  20724.569305   5641.945236  19229.073043      0.017510                    
P 15  26513.411486   2380.776228   2594.935094   -302.283562                    
V 15   2975.804002   4048.511726 -30524.225164      0.023969                    
P 16 -12319.884426  -8819.602892 -22041.121202    -54.392915                    
V 16  20878.502500 -17782.512774  -4175.267565     -0.031945                    
P 17   2827.204665  15928.660068  21490.797152     84.894609                    
V 17 -25132.812261  -7610.157927   9036.647565      0.066618                    
P 18 -16547.006630  -7987.833121  18725.359614     68.133903                    
V 18  -6248.246771 -24058.703272 -15257.199027      0.030356                    
P 19   9919.842124  16519.516808  17948.670127   -296.927838                    
V 19 -22370.259652  -6936.813499  18491.627258      0.048338                    
P 20  13112.459432 -22511.888796   4610.842454    525.830841                    
V 20   6708.065623  -2435.065767 -30447.238809      0.002010                    
P 21   3568.271137 -21611.735356 -14343.189791   -158.767411                    
V 21   8598.055754  17746.720188 -23166.901691      0.070646                    
P 22 -20150.882446   3920.834118  17037.572780   -728.069766                    
V 22  12119.242677 -17713.606157  18749.229671     -0.052540                    
P 23 -24645.877666   1452.300792  -9958.956287   -178.258846                    
V 23 -12019.236555  -5777.064194  27545.719091      0.017661                    
P 24  16412.701913   1246.160323  20742.843262    -68.536284                    
V 24   7684.012102  25602.991140  -7229.873331     -0.005235                    
P 25  19543.908784 -17646.168496   1989.766259   -771.783306                    
V 25    -35.341968   3922.359671  31989.801581     -0.028068                    
P 26  -3919.732333 -16810.939440 -20158.302639    245.910344                    
V 26  18455.100989 -17833.335455  11469.297551      0.093020                    
P 27 -21777.172230 -12297.295826  -9491.035226   -178.834868                    
V 27  11843.309000   1253.336525 -28852.998059     -0.106352                    
P 28  -9119.605079  20567.620212  14796.440110    766.721880                    
V 28 -14408.831591  10310.276418 -24116.076641     -0.005563                    
P 29  18534.281959  -6353.491330 -17976.575154    157.018047                    
V 29  21138.716340   8319.512624  18878.641651     -0.097567                    
P 30  -2012.183870  24371.413562 -10095.237018   -138.840066                    
V 30  -5999.421137 -11927.197934 -27716.138046     -0.074911                    
P 31  -6473.421504 -25502.810298   -443.021398     25.805708                    
V 31   3017.496175  -1311.345848  32018.745693     -0.026107                    
P 32  -4061.113671 -16164.692419  20767.761959    -11.770318                    
V 32  25597.310074   5715.997582   9364.421986      0.154541                    
EOF
